"{\n    \"CCSDS_OMM_VERS\": \"2.0\",\n    \"COMMENT\": \"GENERATED VIA SPACE-TRACK.ORG API\",\n    \"CREATION_DATE\": \"2025-08-31T17:37:22\",\n    \"ORIGINATOR\": \"18 SPCS\",\n    \"OBJECT_NAME\": \"BEIDOU 3M13\",\n    \"OBJECT_ID\": \"2018-072A\",\n    \"CENTER_NAME\": \"EARTH\",\n    \"REF_FRAME\": \"TEME\",\n    \"TIME_SYSTEM\": \"UTC\",\n    \"MEAN_ELEMENT_THEORY\": \"SGP4\",\n    \"EPOCH\": \"2025-08-31T01:02:13.337952\",\n    \"MEAN_MOTION\": \"1.8623141057\",\n    \"ECCENTRICITY\": \"0.00043363159\",\n    \"INCLINATION\": \"56.366721\",\n    \"RA_OF_ASC_NODE\": \"72.251712\",\n    \"ARG_OF_PERICENTER\": \"324.39085\",\n    \"MEAN_ANOMALY\": \"35.638441\",\n    \"EPHEMERIS_TYPE\": \"0\",\n    \"CLASSIFICATION_TYPE\": \"U\",\n    \"NORAD_CAT_ID\": \"43622\",\n    \"ELEMENT_SET_NO\": \"999\",\n    \"REV_AT_EPOCH\": \"4725\",\n    \"BSTAR\": \"0\",\n    \"MEAN_MOTION_DOT\": \"-0.000000154033\",\n    \"MEAN_MOTION_DDOT\": \"0\",\n    \"TLE_LINE0\": \"0 BEIDOU 3M13\",\n    \"TLE_LINE1\": \"1 43622U 18072A   25243.04320993 -.00000015  00000-0  00000-0 0  9998\",\n    \"TLE_LINE2\": \"2 43622  56.3667  72.2517 0004336 324.3909  35.6384  1.86231411 47256\",\n    \"SEMIMAJOR_AXIS\": \"27906.148\",\n    \"PERIOD\": \"773.232\",\n    \"APOAPSIS\": \"21540.114\",\n    \"PERIAPSIS\": \"21515.912\",\n    \"OBJECT_TYPE\": \"PAYLOAD\",\n    \"DECAYED\": \"0\"\n}"